{"type":"FeatureCollection","features":[{"type":"Feature","properties":{"source":"Natural Earth 10m (public domain)"},"geometry":{"type":"MultiPolygon","coordinates":[[[[113.5,-7.706425],[113.504568,-7.70379],[113.528575,-7.700372],[113.658946,-7.720147],[113.671072,-7.71795],[113.690929,-7.70908],[113.699962,-7.706638],[113.722992,-7.708266],[113.763031,-7.722833],[113.785899,-7.726332],[113.803884,-7.721775],[113.81658,-7.710626],[113.837169,-7.68613],[113.854747,-7.677016],[113.86964,-7.677992],[113.886078,-7.683038],[113.909434,-7.68613],[113.930512,-7.683852],[113.945079,-7.677992],[114.016124,-7.618097],[114.045584,-7.611993],[114.077322,-7.630792],[114.116954,-7.680597],[114.140391,-7.70086],[114.172211,-7.713474],[114.195974,-7.714125],[114.236827,-7.703302],[114.258556,-7.700372],[114.273611,-7.705499],[114.310069,-7.740655],[114.325206,-7.750258],[114.334483,-7.753188],[114.347504,-7.754327],[114.36964,-7.753188],[114.381114,-7.754164],[114.388927,-7.758071],[114.406749,-7.773207],[114.445974,-7.794692],[114.460216,-7.809666],[114.467296,-7.830987],[114.466482,-7.852716],[114.460216,-7.894952],[114.457367,-7.90252],[114.444591,-7.920668],[114.44044,-7.93255],[114.440278,-7.94378],[114.442556,-7.952407],[114.445486,-7.959649],[114.447276,-7.966567],[114.446788,-8.014255],[114.404796,-8.15838],[114.365977,-8.357192],[114.363536,-8.386163],[114.358653,-8.409112],[114.357921,-8.419122],[114.360118,-8.430597],[114.371593,-8.45322],[114.373383,-8.498468],[114.37672,-8.519464],[114.388927,-8.528253],[114.401134,-8.517185],[114.405121,-8.491795],[114.40561,-8.447035],[114.423188,-8.46502],[114.427419,-8.49684],[114.426117,-8.562433],[114.432872,-8.582615],[114.445323,-8.602797],[114.461192,-8.618341],[114.478038,-8.624607],[114.498057,-8.625258],[114.510753,-8.628351],[114.535981,-8.645115],[114.589122,-8.664239],[114.597423,-8.675714],[114.603363,-8.688165],[114.615571,-8.700128],[114.625662,-8.716078],[114.624766,-8.740655],[114.597179,-8.775567],[114.555349,-8.777927],[114.467621,-8.748142],[114.445323,-8.744073],[114.388927,-8.748142],[114.366954,-8.741469],[114.369802,-8.726332],[114.391938,-8.700291],[114.385265,-8.664727],[114.34962,-8.632501],[114.302582,-8.611912],[114.261729,-8.610935],[114.220876,-8.636489],[114.197032,-8.645603],[114.186534,-8.634861],[114.174815,-8.619806],[114.148204,-8.622328],[114.104015,-8.638116],[114.0949,-8.637872],[114.059337,-8.631443],[114.050792,-8.62713],[114.041515,-8.608331],[114.031993,-8.604099],[114.01238,-8.60947],[113.994884,-8.618341],[113.979991,-8.620212],[113.968028,-8.604099],[113.969249,-8.59352],[113.973155,-8.579685],[113.973888,-8.56756],[113.964366,-8.562433],[113.954275,-8.564711],[113.933767,-8.574477],[113.922862,-8.576755],[113.90561,-8.573907],[113.879649,-8.566176],[113.85377,-8.555108],[113.837169,-8.542087],[113.832042,-8.546808],[113.828461,-8.548923],[113.825938,-8.551039],[113.823497,-8.556329],[113.818858,-8.541762],[113.813813,-8.507745],[113.806163,-8.501072],[113.790782,-8.503025],[113.773692,-8.508071],[113.760102,-8.515802],[113.754568,-8.524998],[113.750743,-8.52809],[113.74171,-8.528985],[113.723888,-8.528253],[113.719737,-8.524672],[113.721853,-8.50742],[113.72047,-8.501072],[113.707286,-8.492364],[113.698741,-8.493585],[113.688975,-8.49684],[113.672618,-8.494806],[113.658458,-8.484959],[113.640473,-8.458591],[113.62794,-8.45322],[113.596934,-8.447035],[113.590587,-8.442071],[113.579112,-8.428806],[113.573009,-8.425958],[113.540863,-8.430597],[113.527192,-8.429295],[113.5,-8.4138],[113.5,-7.706425]]],[[[117.5,-8.365633],[117.492524,-8.361017],[117.484874,-8.350193],[117.485606,-8.343032],[117.495942,-8.329767],[117.5,-8.320679],[117.5,-8.265568],[117.499766,-8.265232],[117.489757,-8.25742],[117.48463,-8.25506],[117.482677,-8.250665],[117.480479,-8.209161],[117.481619,-8.195001],[117.486827,-8.182875],[117.493907,-8.176202],[117.5,-8.17316],[117.5,-8.365633]]],[[[115.550141,-8.666192],[115.57309,-8.67197],[115.589153,-8.695666],[115.597745,-8.718726],[115.615731,-8.739627],[115.624204,-8.768909],[115.606944,-8.786554],[115.588878,-8.807306],[115.560802,-8.799005],[115.505382,-8.760919],[115.48878,-8.740655],[115.47462,-8.736586],[115.468272,-8.731866],[115.471365,-8.72381],[115.507009,-8.678969],[115.517589,-8.67018],[115.535055,-8.673678],[115.550141,-8.666192]]],[[[116.633311,-8.275079],[116.668224,-8.289239],[116.706228,-8.317071],[116.735118,-8.35296],[116.743175,-8.391778],[116.735118,-8.408868],[116.702159,-8.457452],[116.691661,-8.467462],[116.685232,-8.480564],[116.681,-8.556329],[116.668793,-8.573826],[116.627778,-8.614841],[116.618988,-8.634861],[116.599528,-8.666386],[116.58162,-8.697813],[116.555305,-8.744972],[116.519404,-8.778564],[116.500438,-8.802688],[116.508311,-8.83294],[116.506114,-8.847589],[116.509125,-8.858005],[116.52003,-8.85947],[116.529154,-8.842354],[116.540797,-8.836038],[116.547182,-8.845433],[116.559906,-8.84881],[116.571788,-8.858819],[116.588878,-8.863214],[116.565369,-8.895583],[116.524047,-8.902007],[116.509177,-8.896829],[116.475597,-8.920017],[116.446611,-8.92008],[116.432789,-8.910705],[116.452905,-8.886559],[116.46026,-8.864556],[116.47188,-8.839399],[116.455577,-8.833673],[116.423116,-8.836406],[116.3977,-8.855322],[116.397728,-8.882545],[116.402008,-8.916043],[116.403087,-8.954197],[116.389171,-8.949151],[116.388194,-8.937595],[116.388682,-8.923517],[116.379568,-8.911879],[116.370128,-8.911065],[116.360606,-8.924493],[116.35141,-8.926202],[116.347423,-8.921319],[116.34311,-8.912042],[116.337169,-8.903009],[116.327891,-8.898858],[116.310069,-8.902439],[116.272309,-8.91725],[116.255219,-8.920017],[116.24936,-8.917413],[116.242686,-8.907892],[116.236095,-8.905694],[116.224864,-8.907973],[116.211925,-8.917739],[116.204763,-8.920017],[116.196462,-8.914321],[116.178477,-8.887791],[116.167247,-8.878513],[116.152354,-8.875665],[116.105724,-8.874688],[116.101329,-8.88893],[116.090668,-8.895929],[116.077159,-8.894627],[116.06422,-8.883966],[116.075531,-8.87949],[116.08253,-8.872735],[116.083751,-8.865004],[116.07781,-8.858005],[116.068614,-8.855727],[116.059255,-8.858494],[116.049815,-8.862726],[116.040294,-8.864679],[116.036143,-8.870538],[116.036876,-8.883071],[116.040294,-8.902276],[116.029959,-8.908136],[116.019298,-8.908136],[116.009532,-8.904474],[116.002126,-8.898858],[115.99643,-8.889744],[115.988536,-8.867283],[115.981619,-8.858005],[115.969249,-8.849379],[115.964366,-8.850274],[115.958751,-8.855076],[115.944347,-8.858005],[115.928233,-8.854913],[115.867442,-8.821222],[115.839262,-8.816857],[115.828638,-8.791786],[115.830696,-8.769812],[115.833821,-8.748874],[115.848592,-8.724793],[115.868907,-8.730645],[115.879405,-8.724786],[115.884451,-8.732843],[115.887462,-8.745782],[115.892263,-8.754815],[115.918464,-8.75374],[115.941759,-8.754877],[115.954449,-8.75372],[115.968203,-8.74745],[115.983026,-8.737059],[115.993012,-8.742364],[116.002615,-8.742771],[116.013845,-8.746677],[116.023204,-8.748142],[116.027843,-8.744724],[116.033702,-8.738865],[116.041189,-8.734145],[116.050548,-8.73447],[116.053233,-8.739516],[116.057465,-8.749933],[116.06567,-8.759974],[116.07728,-8.743198],[116.087576,-8.737237],[116.091482,-8.726983],[116.060271,-8.713907],[116.063349,-8.673059],[116.070673,-8.638494],[116.072645,-8.577784],[116.062994,-8.521301],[116.038591,-8.500403],[116.027937,-8.445008],[116.050047,-8.414638],[116.069088,-8.406237],[116.097911,-8.408461],[116.105724,-8.40545],[116.110606,-8.399184],[116.117198,-8.382013],[116.122813,-8.374444],[116.138438,-8.36297],[116.167979,-8.346938],[116.180919,-8.337172],[116.269705,-8.247735],[116.286388,-8.236261],[116.376231,-8.201837],[116.393809,-8.201104],[116.424653,-8.217706],[116.497406,-8.2374],[116.539073,-8.243829],[116.554454,-8.251235],[116.573009,-8.264093],[116.590994,-8.269708],[116.633311,-8.275079]]],[[[117.5,-9.022797],[117.473888,-9.029962],[117.388868,-9.053739],[117.334132,-9.059354],[117.300508,-9.04707],[117.273858,-9.04024],[117.226145,-9.023781],[117.192406,-9.023727],[117.171446,-9.032049],[117.153465,-9.061166],[117.140969,-9.076418],[117.126801,-9.091241],[117.0713,-9.101739],[117.009736,-9.107293],[116.991421,-9.085127],[116.97039,-9.071335],[116.949229,-9.060154],[116.928233,-9.063897],[116.906423,-9.063409],[116.850271,-9.045343],[116.828298,-9.042901],[116.806163,-9.03631],[116.773936,-9.012791],[116.763031,-9.015558],[116.758556,-9.004571],[116.745372,-8.983087],[116.728452,-8.963096],[116.7312,-8.946522],[116.747907,-8.922928],[116.740868,-8.905055],[116.736613,-8.883021],[116.73518,-8.873397],[116.758839,-8.849859],[116.776909,-8.826347],[116.817149,-8.818129],[116.824474,-8.799005],[116.8213,-8.787286],[116.814464,-8.780043],[116.807628,-8.775486],[116.804535,-8.771661],[116.802501,-8.764581],[116.797374,-8.754571],[116.790701,-8.745375],[116.771078,-8.747815],[116.764075,-8.738189],[116.772343,-8.705071],[116.772267,-8.680257],[116.748517,-8.666544],[116.790091,-8.583704],[116.832042,-8.574802],[116.839366,-8.554864],[116.838145,-8.507908],[116.85727,-8.524021],[116.865896,-8.527602],[116.879649,-8.528253],[116.890391,-8.5263],[116.984548,-8.495782],[117.031993,-8.468357],[117.09018,-8.425226],[117.12615,-8.40545],[117.117686,-8.383477],[117.140473,-8.372003],[117.173513,-8.365167],[117.195079,-8.357599],[117.215587,-8.384942],[117.229015,-8.388116],[117.261974,-8.390313],[117.273774,-8.395196],[117.287364,-8.404962],[117.316091,-8.419692],[117.353201,-8.44671],[117.43393,-8.481134],[117.427745,-8.465265],[117.431163,-8.453302],[117.437755,-8.442315],[117.441417,-8.429376],[117.442719,-8.41074],[117.447276,-8.408624],[117.45574,-8.414239],[117.468761,-8.419122],[117.5,-8.418872],[117.5,-9.022797]]],[[[116.924083,-8.428806],[116.935395,-8.422784],[116.951508,-8.421157],[116.949229,-8.436049],[116.944021,-8.438653],[116.938243,-8.434828],[116.933035,-8.4367],[116.930024,-8.438409],[116.916515,-8.445977],[116.898855,-8.449477],[116.892507,-8.449477],[116.882986,-8.445489],[116.869314,-8.447931],[116.858816,-8.452325],[116.846528,-8.450453],[116.838145,-8.446222],[116.858816,-8.440525],[116.88266,-8.43434],[116.906749,-8.4367],[116.918142,-8.4367],[116.924083,-8.428806]]],[[[117.0053,-8.407485],[117.012625,-8.407159],[117.013357,-8.413018],[117.008149,-8.41782],[117.002452,-8.416274],[116.997569,-8.418878],[117.001638,-8.422621],[116.999034,-8.4249],[116.984711,-8.431085],[116.981537,-8.414239],[116.985362,-8.405613],[116.987804,-8.401869],[116.990896,-8.404311],[116.993988,-8.406834],[116.997081,-8.404311],[117.0053,-8.407485]]],[[[116.02947,-8.355727],[116.033376,-8.345147],[116.041921,-8.346531],[116.042491,-8.354587],[116.038341,-8.358982],[116.033783,-8.361505],[116.02947,-8.355727]]],[[[117.414154,-8.137791],[117.416515,-8.140558],[117.421397,-8.141453],[117.417654,-8.145847],[117.411876,-8.146417],[117.410167,-8.150079],[117.404796,-8.153904],[117.396495,-8.156427],[117.386485,-8.16017],[117.382742,-8.159112],[117.381684,-8.160821],[117.37794,-8.164727],[117.370291,-8.165134],[117.362559,-8.162937],[117.357921,-8.159682],[117.349376,-8.160252],[117.352957,-8.15252],[117.36199,-8.15016],[117.376557,-8.151462],[117.385834,-8.138198],[117.398936,-8.135919],[117.410004,-8.136489],[117.414154,-8.137791]]],[[[115.619151,-8.288751],[115.652517,-8.318455],[115.691091,-8.344415],[115.714203,-8.375177],[115.700938,-8.419122],[115.690684,-8.429457],[115.658458,-8.455499],[115.639903,-8.466241],[115.615489,-8.492446],[115.604828,-8.501072],[115.533702,-8.506524],[115.52296,-8.511326],[115.515961,-8.534356],[115.49879,-8.548435],[115.364024,-8.596938],[115.322602,-8.623793],[115.290782,-8.658787],[115.268809,-8.699151],[115.253917,-8.714614],[115.2317,-8.720798],[115.212413,-8.728448],[115.203136,-8.747003],[115.205333,-8.769464],[115.220551,-8.788995],[115.228038,-8.782159],[115.223481,-8.778009],[115.214366,-8.761814],[115.232432,-8.754002],[115.237966,-8.772231],[115.235525,-8.819757],[115.229015,-8.830255],[115.213227,-8.839939],[115.195079,-8.847101],[115.180919,-8.850518],[115.1574,-8.851821],[115.134532,-8.850763],[115.113455,-8.845392],[115.094981,-8.833673],[115.094249,-8.818455],[115.114919,-8.803399],[115.15919,-8.782159],[115.170665,-8.768731],[115.181895,-8.746352],[115.18629,-8.722345],[115.176931,-8.703383],[115.172374,-8.696547],[115.156098,-8.662042],[115.148692,-8.658136],[115.139822,-8.655369],[115.131847,-8.651951],[115.103363,-8.629653],[115.090099,-8.614841],[115.084727,-8.600356],[115.076671,-8.585138],[115.058116,-8.570733],[115.022634,-8.548923],[114.953136,-8.485121],[114.927013,-8.467462],[114.796641,-8.40545],[114.75587,-8.397719],[114.639008,-8.398614],[114.604503,-8.386489],[114.574229,-8.362481],[114.549083,-8.334242],[114.468435,-8.21852],[114.447927,-8.12184],[114.452403,-8.095147],[114.481456,-8.089532],[114.504731,-8.090427],[114.517833,-8.099705],[114.527354,-8.113539],[114.539724,-8.128025],[114.555349,-8.133884],[114.570974,-8.12949],[114.597423,-8.11061],[114.612559,-8.12184],[114.634044,-8.127211],[114.673106,-8.131036],[114.691417,-8.135024],[114.857595,-8.193129],[114.892914,-8.180271],[114.984386,-8.180434],[115.022634,-8.172621],[115.063243,-8.143243],[115.135916,-8.072849],[115.172862,-8.055352],[115.193126,-8.055108],[115.215505,-8.059503],[115.236176,-8.067966],[115.251964,-8.079522],[115.268809,-8.089451],[115.337901,-8.103774],[115.502452,-8.172621],[115.53533,-8.194594],[115.565115,-8.221612],[115.619151,-8.288751]]],[[[116.924083,-8.428806],[116.935395,-8.422784],[116.951508,-8.421157],[116.949229,-8.436049],[116.944021,-8.438653],[116.938243,-8.434828],[116.933035,-8.4367],[116.930024,-8.438409],[116.916515,-8.445977],[116.898855,-8.449477],[116.892507,-8.449477],[116.882986,-8.445489],[116.869314,-8.447931],[116.858816,-8.452325],[116.846528,-8.450453],[116.838145,-8.446222],[116.858816,-8.440525],[116.88266,-8.43434],[116.906749,-8.4367],[116.918142,-8.4367],[116.924083,-8.428806]]],[[[117.0053,-8.407485],[117.012625,-8.407159],[117.013357,-8.413018],[117.008149,-8.41782],[117.002452,-8.416274],[116.997569,-8.418878],[117.001638,-8.422621],[116.999034,-8.4249],[116.984711,-8.431085],[116.981537,-8.414239],[116.985362,-8.405613],[116.987804,-8.401869],[116.990896,-8.404311],[116.993988,-8.406834],[116.997081,-8.404311],[117.0053,-8.407485]]],[[[116.02947,-8.355727],[116.033376,-8.345147],[116.041921,-8.346531],[116.042491,-8.354587],[116.038341,-8.358982],[116.033783,-8.361505],[116.02947,-8.355727]]],[[[117.414154,-8.137791],[117.416515,-8.140558],[117.421397,-8.141453],[117.417654,-8.145847],[117.411876,-8.146417],[117.410167,-8.150079],[117.404796,-8.153904],[117.396495,-8.156427],[117.386485,-8.16017],[117.382742,-8.159112],[117.381684,-8.160821],[117.37794,-8.164727],[117.370291,-8.165134],[117.362559,-8.162937],[117.357921,-8.159682],[117.349376,-8.160252],[117.352957,-8.15252],[117.36199,-8.15016],[117.376557,-8.151462],[117.385834,-8.138198],[117.398936,-8.135919],[117.410004,-8.136489],[117.414154,-8.137791]]]]}}],"bbox":[113.5,-9.6,117.5,-7.4]}