{"type":"FeatureCollection","features":[{"type":"Feature","properties":{"source":"Natural Earth 10m (public domain)"},"geometry":{"type":"MultiPolygon","coordinates":[[[[132.5,-3],[132.39221,-3],[132.365733,-2.985284],[132.339854,-2.977634],[132.342296,-2.958185],[132.325694,-2.946547],[132.27768,-2.936619],[132.266856,-2.935479],[132.233165,-2.936619],[132.2199,-2.934259],[132.209483,-2.928969],[132.199718,-2.92254],[132.188324,-2.916681],[132.184581,-2.936212],[132.168793,-2.946466],[132.151052,-2.94671],[132.140636,-2.936619],[132.131358,-2.941339],[132.123302,-2.942315],[132.115245,-2.940525],[132.106456,-2.936619],[132.111095,-2.954278],[132.101248,-2.959893],[132.07545,-2.957696],[132.073497,-2.95143],[132.057953,-2.916681],[132.038748,-2.926446],[131.996918,-2.914809],[131.982188,-2.929783],[131.976085,-2.929783],[131.977875,-2.914646],[131.984548,-2.907647],[131.993663,-2.90309],[132.003429,-2.896173],[132.012869,-2.885919],[132.017751,-2.878595],[132.023936,-2.854669],[132.005707,-2.852716],[131.989757,-2.848403],[131.989757,-2.840997],[132.004405,-2.837091],[132.022472,-2.829034],[132.037852,-2.81756],[132.044444,-2.803399],[132.035004,-2.793552],[132.012869,-2.790948],[131.965587,-2.793145],[131.958018,-2.788181],[131.972667,-2.776951],[132.010265,-2.759047],[132.027192,-2.759047],[132.044444,-2.761163],[132.058279,-2.758559],[132.06544,-2.744806],[132.074229,-2.755792],[132.081554,-2.757908],[132.084239,-2.751723],[132.078461,-2.738539],[132.088064,-2.73561],[132.130382,-2.738539],[132.155772,-2.733494],[132.181488,-2.724867],[132.160167,-2.71559],[132.11085,-2.719415],[132.113292,-2.70436],[132.121349,-2.697931],[132.161632,-2.683282],[132.181488,-2.683282],[132.194835,-2.678318],[132.201915,-2.676446],[132.311778,-2.676446],[132.325694,-2.679864],[132.367198,-2.696954],[132.382009,-2.699314],[132.415538,-2.696954],[132.408051,-2.696954],[132.413097,-2.696466],[132.428477,-2.696954],[132.424327,-2.710382],[132.430024,-2.721449],[132.43336,-2.732192],[132.421153,-2.744806],[132.437836,-2.74505],[132.459972,-2.73268],[132.475841,-2.731134],[132.475841,-2.724867],[132.468923,-2.707615],[132.48463,-2.699477],[132.5,-2.698441],[132.5,-2.20871],[132.455333,-2.217218],[132.384939,-2.256524],[132.347911,-2.270115],[132.305675,-2.265558],[132.280528,-2.24977],[132.264659,-2.228285],[132.251964,-2.204767],[132.236176,-2.183038],[132.214529,-2.165785],[132.073416,-2.105157],[132.04835,-2.083185],[132.044444,-2.059503],[132.052582,-2.05283],[132.080089,-2.037693],[132.085948,-2.028904],[132.090587,-2.015558],[132.101817,-2.006931],[132.126964,-1.998142],[132.09962,-2.001235],[132.053233,-2.015395],[132.027354,-2.018487],[132.003429,-1.983819],[131.983246,-1.972589],[131.972911,-1.964614],[131.968598,-1.953383],[131.971039,-1.943129],[131.975434,-1.932224],[131.977306,-1.921645],[131.972341,-1.912367],[131.964692,-1.908868],[131.956879,-1.907647],[131.949229,-1.904474],[131.941905,-1.895115],[131.938324,-1.883722],[131.941905,-1.850681],[131.941091,-1.837498],[131.938243,-1.828302],[131.927745,-1.805759],[131.949229,-1.794692],[131.96339,-1.778497],[131.975352,-1.760431],[131.989757,-1.744806],[132.007091,-1.732192],[132.018321,-1.721287],[132.022472,-1.706313],[132.018321,-1.682794],[132.018809,-1.684015],[132.020193,-1.685642],[132.021983,-1.683852],[132.023936,-1.675958],[132.000987,-1.677911],[131.96754,-1.697198],[131.927257,-1.706231],[131.917491,-1.707289],[131.909679,-1.703302],[131.900401,-1.690199],[131.901134,-1.684177],[131.905772,-1.677423],[131.908702,-1.672052],[131.901378,-1.667657],[131.895274,-1.662856],[131.889415,-1.657159],[131.886729,-1.652032],[131.893565,-1.611017],[131.896739,-1.601495],[131.910899,-1.590265],[131.914073,-1.583429],[131.920584,-1.579197],[131.949067,-1.573337],[131.955577,-1.569757],[131.976329,-1.548598],[131.982188,-1.538751],[131.964041,-1.538751],[131.905772,-1.567071],[131.879893,-1.5735],[131.888845,-1.556573],[131.883474,-1.550877],[131.871267,-1.553155],[131.859386,-1.559828],[131.821462,-1.59824],[131.804861,-1.607599],[131.797618,-1.580824],[131.806407,-1.549981],[131.811046,-1.52044],[131.791189,-1.497735],[131.789724,-1.525649],[131.784028,-1.547459],[131.771658,-1.563246],[131.750173,-1.5735],[131.723155,-1.571954],[131.707774,-1.555841],[131.706716,-1.534763],[131.722911,-1.518243],[131.703787,-1.511],[131.685069,-1.514907],[131.666352,-1.522393],[131.647227,-1.525649],[131.628754,-1.520929],[131.613536,-1.511163],[131.588715,-1.487563],[131.57309,-1.480157],[131.552501,-1.476983],[131.520193,-1.476739],[131.513927,-1.475193],[131.507823,-1.471938],[131.500499,-1.469659],[131.489513,-1.470473],[131.47755,-1.474054],[131.469086,-1.479099],[131.465668,-1.486586],[131.469005,-1.497735],[131.456879,-1.502862],[131.446137,-1.503839],[131.436534,-1.501723],[131.427501,-1.497735],[131.404959,-1.469903],[131.400645,-1.467055],[131.396658,-1.461033],[131.389822,-1.456801],[131.387218,-1.450779],[131.396983,-1.439386],[131.401866,-1.427341],[131.395356,-1.413751],[131.383637,-1.401951],[131.372813,-1.394708],[131.342133,-1.403578],[131.322276,-1.401056],[131.27711,-1.374282],[131.274913,-1.39186],[131.292003,-1.410089],[131.334972,-1.439386],[131.336925,-1.453058],[131.323741,-1.469171],[131.305186,-1.483087],[131.291515,-1.490981],[131.257335,-1.497735],[131.225434,-1.515558],[131.20574,-1.523614],[131.198497,-1.521254],[131.192882,-1.494806],[131.186534,-1.48504],[131.177501,-1.477309],[131.167247,-1.470473],[131.126313,-1.453302],[131.086436,-1.451267],[131.003591,-1.456231],[130.977306,-1.452895],[130.960297,-1.446222],[130.950938,-1.433689],[130.948253,-1.412205],[130.953136,-1.405043],[130.98585,-1.39129],[130.999522,-1.379083],[131.004405,-1.372328],[131.030121,-1.298517],[131.027599,-1.284112],[131.03004,-1.275567],[131.040782,-1.271905],[131.042166,-1.267836],[131.057384,-1.247735],[131.074474,-1.237563],[131.155284,-1.224542],[131.181651,-1.217218],[131.18865,-1.207208],[131.202159,-1.162693],[131.231619,-1.126072],[131.236176,-1.117283],[131.239513,-1.105645],[131.254161,-1.080255],[131.257335,-1.062677],[131.253673,-1.027602],[131.257091,-1.014337],[131.271007,-1.003676],[131.266368,-0.987888],[131.271495,-0.949395],[131.26352,-0.929295],[131.270193,-0.926853],[131.291515,-0.914972],[131.250255,-0.872654],[131.235362,-0.846449],[131.243012,-0.819431],[131.332205,-0.792739],[131.373546,-0.787856],[131.387543,-0.782647],[131.398774,-0.76629],[131.426768,-0.759454],[131.437999,-0.754002],[131.450369,-0.750095],[131.488292,-0.74684],[131.496349,-0.74033],[131.50294,-0.733331],[131.517914,-0.731703],[131.53419,-0.733494],[131.54477,-0.736912],[131.523448,-0.761977],[131.516612,-0.774347],[131.516775,-0.785252],[131.532888,-0.782647],[131.553477,-0.776788],[131.5713,-0.76922],[131.578868,-0.761],[131.59018,-0.756524],[131.779552,-0.719171],[131.863455,-0.69199],[131.876475,-0.68963],[131.884288,-0.681899],[131.908458,-0.633884],[131.951915,-0.5888],[131.978852,-0.566664],[132.003429,-0.551853],[132.056,-0.534275],[132.068858,-0.531996],[132.07488,-0.52337],[132.092052,-0.483005],[132.09962,-0.469903],[132.15089,-0.435724],[132.16627,-0.432224],[132.19988,-0.414646],[132.237153,-0.401544],[132.27003,-0.384535],[132.287934,-0.381117],[132.312755,-0.379327],[132.396658,-0.353448],[132.437185,-0.347101],[132.5,-0.352761],[132.5,-3]]],[[[129.954438,-1.162693],[129.960704,-1.176365],[129.953298,-1.18963],[129.927257,-1.210382],[129.925304,-1.205173],[129.922699,-1.20086],[129.920746,-1.195977],[129.920421,-1.189386],[129.882091,-1.219659],[129.859223,-1.233168],[129.830903,-1.237074],[129.872569,-1.210219],[129.879405,-1.202895],[129.874197,-1.196954],[129.861827,-1.200453],[129.84962,-1.206964],[129.844574,-1.210382],[129.833263,-1.211847],[129.762706,-1.210382],[129.743907,-1.199884],[129.74879,-1.185805],[129.767426,-1.172052],[129.858653,-1.142022],[129.879405,-1.141534],[129.896332,-1.154229],[129.917003,-1.156427],[129.937673,-1.156508],[129.954438,-1.162693]]],[[[129.902354,-0.408461],[129.910004,-0.413507],[129.916189,-0.427423],[129.913829,-0.44256],[129.908539,-0.449395],[129.902843,-0.459161],[129.897146,-0.479181],[129.888194,-0.494724],[129.87794,-0.502374],[129.864431,-0.49863],[129.85141,-0.481622],[129.844086,-0.462335],[129.844249,-0.444268],[129.848888,-0.432387],[129.854503,-0.426528],[129.85963,-0.422947],[129.87379,-0.414972],[129.892345,-0.409356],[129.902354,-0.408461]]],[[[130.917247,-0.778416],[130.924571,-0.780694],[130.916759,-0.78574],[130.904796,-0.790297],[130.899913,-0.791436],[130.891124,-0.794854],[130.882498,-0.795994],[130.875743,-0.799249],[130.87322,-0.808852],[130.87672,-0.81756],[130.884288,-0.819513],[130.891612,-0.820408],[130.893728,-0.826267],[130.889659,-0.832778],[130.881602,-0.839532],[130.871837,-0.844659],[130.847504,-0.851007],[130.819347,-0.870294],[130.800792,-0.874607],[130.762218,-0.876642],[130.617931,-0.908461],[130.543468,-0.913832],[130.51002,-0.922459],[130.51002,-0.914972],[130.519867,-0.91131],[130.523692,-0.908787],[130.503591,-0.907403],[130.487315,-0.903904],[130.475434,-0.905938],[130.468516,-0.922459],[130.461681,-0.922459],[130.452647,-0.910577],[130.436778,-0.913263],[130.400157,-0.929295],[130.409434,-0.912042],[130.427745,-0.902927],[130.440684,-0.893162],[130.434337,-0.874607],[130.44752,-0.860935],[130.448416,-0.818617],[130.461681,-0.805108],[130.461274,-0.816013],[130.461681,-0.819431],[130.468516,-0.819431],[130.470714,-0.806736],[130.478526,-0.7999],[130.490001,-0.799249],[130.503184,-0.805108],[130.49464,-0.827895],[130.519054,-0.839614],[130.550955,-0.834161],[130.564708,-0.805108],[130.573985,-0.809828],[130.580414,-0.815606],[130.584646,-0.823175],[130.586436,-0.833103],[130.615896,-0.811782],[130.631196,-0.806248],[130.646658,-0.812595],[130.64503,-0.814223],[130.643809,-0.814874],[130.642589,-0.816013],[130.641124,-0.819431],[130.654307,-0.823989],[130.66391,-0.820896],[130.671886,-0.815199],[130.680675,-0.812595],[130.694591,-0.815199],[130.718516,-0.824314],[130.732758,-0.826267],[130.757986,-0.818943],[130.780284,-0.805922],[130.800141,-0.801446],[130.817882,-0.819431],[130.819184,-0.809666],[130.817556,-0.805922],[130.811046,-0.798923],[130.81658,-0.788263],[130.800629,-0.769952],[130.80421,-0.757257],[130.81186,-0.764744],[130.819998,-0.767348],[130.839122,-0.767511],[130.852061,-0.76922],[130.857188,-0.768731],[130.873546,-0.764581],[130.879405,-0.764744],[130.889415,-0.768162],[130.906016,-0.776625],[130.917247,-0.778416]]],[[[130.677582,-0.435805],[130.686371,-0.449151],[130.687999,-0.463149],[130.683442,-0.477227],[130.654552,-0.516697],[130.641124,-0.52752],[130.596365,-0.538507],[130.581065,-0.539239],[130.571544,-0.531996],[130.583669,-0.523858],[130.597667,-0.490818],[130.596853,-0.464532],[130.564708,-0.476739],[130.562266,-0.481052],[130.558279,-0.49505],[130.554454,-0.500909],[130.547618,-0.505304],[130.533702,-0.509861],[130.52711,-0.514337],[130.5171,-0.517755],[130.461681,-0.52516],[130.47047,-0.514337],[130.482432,-0.50921],[130.492524,-0.503351],[130.496349,-0.490411],[130.48113,-0.495782],[130.469493,-0.49033],[130.460948,-0.478123],[130.454845,-0.4638],[130.463552,-0.465509],[130.468598,-0.467218],[130.472179,-0.47031],[130.475841,-0.476739],[130.482188,-0.464532],[130.493826,-0.450128],[130.505056,-0.441339],[130.51002,-0.445733],[130.513438,-0.461847],[130.522472,-0.468927],[130.535167,-0.468927],[130.550466,-0.4638],[130.559337,-0.455987],[130.569591,-0.444106],[130.582286,-0.433201],[130.60613,-0.42669],[130.610118,-0.422621],[130.613129,-0.417576],[130.617442,-0.41253],[130.625011,-0.409601],[130.632091,-0.41131],[130.645844,-0.419366],[130.670258,-0.430271],[130.677582,-0.435805]]],[[[129.536876,-0.13421],[129.557628,-0.158787],[129.567393,-0.175551],[129.571544,-0.192153],[129.568207,-0.200128],[129.560232,-0.208103],[129.549978,-0.214125],[129.540294,-0.216729],[129.526134,-0.214614],[129.516775,-0.208754],[129.501964,-0.188735],[129.458263,-0.113702],[129.372895,-0.079522],[129.370372,-0.066339],[129.372244,-0.050348],[129.371593,-0.036798],[129.361664,-0.031101],[129.337576,0.006781],[129.332774,0.011379],[129.310069,0.024848],[129.299083,0.033433],[129.293468,0.036322],[129.290294,0.040595],[129.293468,0.047675],[129.300466,0.050605],[129.309255,0.048041],[129.459809,-0.080173],[129.512706,-0.114353],[129.536876,-0.13421]]],[[[131.599376,-2.634861],[131.625987,-2.619561],[131.639903,-2.613702],[131.654633,-2.613214],[131.644054,-2.628676],[131.622569,-2.64365],[131.598155,-2.653904],[131.578868,-2.65602],[131.57252,-2.651056],[131.579356,-2.644627],[131.599376,-2.634861]]],[[[130.386485,-1.888279],[130.354991,-1.912205],[130.344249,-1.928481],[130.434337,-1.963311],[130.43686,-1.976332],[130.429861,-1.980239],[130.417979,-1.980727],[130.406261,-1.983819],[130.398448,-1.989679],[130.393891,-1.994806],[130.389903,-2.000665],[130.383067,-2.008396],[130.373546,-2.012791],[130.365489,-2.008559],[130.357595,-2.001642],[130.348399,-1.998142],[130.340017,-1.993422],[130.339529,-1.983331],[130.342459,-1.973565],[130.344981,-1.970147],[130.343028,-1.964939],[130.341075,-1.955336],[130.338145,-1.94964],[130.326996,-1.960545],[130.308849,-1.991469],[130.300548,-1.998142],[130.28712,-2.004571],[130.275238,-2.019138],[130.264985,-2.035252],[130.256114,-2.045831],[130.223399,-2.057794],[130.154307,-2.05877],[130.126475,-2.06699],[130.119477,-2.059015],[130.113048,-2.053155],[130.106456,-2.048761],[130.098481,-2.045831],[130.108572,-2.04046],[130.112804,-2.038995],[130.086925,-2.026137],[130.065929,-2.022638],[130.012869,-2.025486],[129.968923,-2.004978],[129.925548,-2.003839],[129.917003,-2.00156],[129.904063,-1.993259],[129.873383,-1.982029],[129.856212,-1.969496],[129.840831,-1.964044],[129.834321,-1.960138],[129.816417,-1.940851],[129.810557,-1.935968],[129.768077,-1.918145],[129.743826,-1.912205],[129.732921,-1.903741],[129.714854,-1.881443],[129.745291,-1.863458],[129.872569,-1.819268],[129.876231,-1.815851],[129.877208,-1.811944],[129.877615,-1.808282],[129.879405,-1.805759],[129.895274,-1.796808],[129.90504,-1.793715],[129.938731,-1.789239],[129.958751,-1.780694],[130.011974,-1.750177],[130.030772,-1.743829],[130.051768,-1.739435],[130.096039,-1.735447],[130.137055,-1.725274],[130.160492,-1.724298],[130.22047,-1.736017],[130.2317,-1.734308],[130.24822,-1.718845],[130.267751,-1.704522],[130.289073,-1.692153],[130.321544,-1.679132],[130.332286,-1.67669],[130.342947,-1.67669],[130.353363,-1.680108],[130.357188,-1.69492],[130.351817,-1.741388],[130.406261,-1.778985],[130.417979,-1.793552],[130.431326,-1.81463],[130.439952,-1.835707],[130.437755,-1.850681],[130.428071,-1.855727],[130.420421,-1.855645],[130.415701,-1.858087],[130.411794,-1.881768],[130.405772,-1.885024],[130.396983,-1.885431],[130.386485,-1.888279]]],[[[131.297618,-0.237237],[131.306651,-0.251397],[131.338552,-0.277602],[131.34547,-0.288181],[131.340099,-0.296075],[131.316661,-0.299574],[131.311371,-0.308852],[131.306651,-0.321222],[131.296723,-0.328546],[131.287283,-0.337172],[131.283946,-0.353936],[131.27947,-0.351739],[131.268077,-0.348565],[131.26352,-0.346449],[131.262218,-0.368341],[131.25294,-0.384373],[131.237966,-0.389255],[131.219249,-0.377537],[131.180919,-0.346449],[131.157725,-0.33294],[131.147472,-0.33587],[131.143077,-0.332127],[131.112804,-0.332127],[131.10434,-0.32822],[131.102224,-0.324395],[131.098481,-0.322931],[131.08546,-0.32586],[131.069835,-0.33294],[131.023285,-0.366876],[131.021821,-0.35296],[131.015636,-0.349867],[130.996104,-0.353936],[130.99586,-0.354913],[130.991059,-0.357029],[130.984386,-0.359145],[130.979015,-0.36004],[130.97047,-0.358005],[130.958263,-0.348565],[130.951671,-0.346449],[130.930919,-0.315362],[130.905284,-0.298435],[130.899913,-0.291192],[130.907237,-0.284926],[130.893077,-0.264337],[130.879405,-0.254083],[130.863292,-0.250584],[130.834239,-0.249282],[130.816905,-0.244887],[130.807628,-0.244073],[130.796723,-0.23919],[130.794444,-0.228204],[130.797374,-0.209242],[130.792247,-0.189874],[130.784841,-0.179376],[130.730235,-0.130466],[130.719493,-0.114109],[130.715505,-0.093194],[130.707042,-0.096287],[130.701182,-0.096449],[130.688243,-0.093194],[130.692719,-0.086358],[130.695567,-0.079522],[130.677013,-0.077895],[130.650076,-0.079767],[130.625255,-0.084975],[130.613048,-0.093194],[130.637462,-0.098728],[130.647227,-0.103855],[130.654063,-0.113702],[130.636078,-0.113458],[130.626231,-0.125746],[130.629242,-0.14072],[130.665375,-0.154392],[130.682384,-0.169854],[130.717784,-0.216974],[130.73878,-0.255792],[130.742686,-0.274672],[130.750987,-0.28753],[130.792735,-0.307224],[130.811046,-0.318536],[130.81544,-0.302179],[130.820323,-0.294122],[130.828136,-0.291436],[130.871918,-0.293227],[130.887055,-0.296482],[130.893728,-0.302016],[130.896658,-0.312107],[130.903819,-0.31756],[130.912852,-0.321059],[130.920909,-0.32586],[130.929535,-0.336114],[130.940115,-0.35589],[130.948253,-0.366876],[130.940278,-0.370864],[130.931407,-0.379002],[130.924001,-0.388604],[130.920909,-0.398045],[130.916759,-0.40602],[130.906505,-0.413018],[130.865489,-0.429295],[130.779307,-0.445082],[130.756033,-0.445977],[130.733084,-0.441502],[130.715505,-0.428399],[130.706065,-0.410252],[130.680675,-0.339614],[130.693614,-0.331313],[130.695974,-0.318129],[130.692556,-0.303481],[130.688243,-0.291192],[130.609141,-0.31406],[130.579112,-0.333917],[130.564708,-0.373712],[130.571544,-0.373712],[130.582286,-0.366143],[130.578624,-0.383884],[130.561534,-0.427016],[130.554454,-0.433526],[130.547374,-0.43613],[130.5442,-0.432061],[130.545746,-0.42018],[130.558442,-0.387384],[130.541189,-0.382501],[130.540538,-0.367934],[130.545421,-0.347752],[130.5442,-0.32586],[130.537934,-0.316502],[130.522227,-0.301935],[130.516124,-0.291192],[130.5171,-0.282647],[130.522472,-0.274835],[130.526541,-0.266778],[130.523692,-0.257582],[130.506602,-0.250258],[130.485688,-0.255304],[130.454845,-0.271254],[130.451182,-0.274184],[130.444509,-0.283136],[130.441173,-0.284926],[130.435557,-0.282892],[130.432384,-0.273696],[130.427501,-0.271254],[130.408458,-0.269708],[130.39975,-0.267673],[130.392751,-0.263849],[130.382172,-0.275649],[130.375662,-0.274591],[130.37086,-0.267999],[130.365977,-0.263849],[130.338878,-0.262872],[130.338145,-0.263849],[130.316254,-0.259942],[130.310802,-0.257582],[130.307384,-0.251886],[130.304698,-0.242771],[130.300548,-0.234145],[130.293712,-0.230401],[130.265391,-0.224786],[130.232432,-0.212823],[130.217052,-0.20086],[130.241954,-0.195571],[130.250173,-0.197442],[130.267589,-0.20615],[130.276622,-0.209242],[130.279959,-0.208673],[130.303233,-0.208673],[130.303966,-0.209242],[130.338552,-0.20322],[130.3567,-0.201837],[130.369151,-0.20615],[130.383556,-0.214451],[130.398611,-0.214451],[130.412852,-0.208429],[130.424083,-0.199314],[130.429861,-0.186293],[130.416677,-0.184177],[130.397716,-0.183364],[130.386485,-0.175063],[130.40268,-0.169854],[130.41212,-0.157322],[130.413748,-0.141534],[130.406261,-0.127374],[130.397716,-0.145929],[130.384613,-0.157485],[130.374034,-0.155857],[130.372244,-0.13421],[130.365977,-0.13421],[130.361339,-0.143243],[130.354828,-0.146661],[130.346934,-0.14544],[130.338145,-0.140313],[130.341319,-0.154474],[130.347504,-0.16839],[130.350759,-0.180352],[130.344981,-0.188735],[130.333018,-0.188246],[130.317068,-0.181817],[130.303071,-0.172947],[130.29713,-0.165216],[130.293956,-0.152032],[130.279796,-0.131443],[130.276622,-0.11712],[130.28061,-0.104994],[130.290782,-0.099216],[130.304047,-0.099867],[130.317638,-0.106785],[130.323497,-0.102634],[130.329112,-0.096612],[130.334239,-0.088962],[130.338145,-0.079522],[130.34311,-0.09352],[130.344981,-0.109063],[130.348399,-0.12184],[130.358653,-0.127374],[130.368663,-0.12184],[130.369151,-0.108331],[130.364268,-0.09238],[130.358653,-0.079522],[130.38087,-0.073663],[130.394298,-0.082818],[130.406993,-0.097263],[130.427501,-0.106785],[130.42335,-0.086196],[130.420665,-0.079522],[130.427501,-0.079522],[130.429861,-0.086602],[130.434337,-0.093194],[130.477794,-0.075494],[130.498546,-0.062677],[130.51002,-0.044732],[130.519542,-0.049656],[130.528087,-0.05641],[130.5442,-0.072686],[130.545421,-0.068617],[130.550466,-0.058445],[130.552745,-0.063084],[130.556163,-0.067926],[130.558442,-0.072686],[130.560802,-0.065606],[130.571544,-0.044732],[130.574962,-0.048598],[130.586436,-0.058445],[130.595225,-0.047214],[130.622732,-0.051772],[130.641124,-0.044732],[130.660981,-0.044732],[130.691091,-0.03574],[130.716319,-0.033258],[130.722341,-0.052179],[130.736095,-0.046889],[130.765473,-0.049981],[130.783865,-0.044732],[130.776866,-0.037286],[130.768891,-0.032525],[130.759776,-0.030532],[130.749685,-0.031101],[130.761485,-0.018365],[130.779063,-0.008966],[130.800629,-0.003839],[130.824718,-0.003839],[130.961925,-0.044732],[130.966563,-0.04811],[130.969981,-0.053521],[130.973643,-0.057184],[130.979015,-0.055352],[130.986827,-0.04815],[130.990571,-0.046157],[131.019786,-0.038629],[131.026703,-0.037896],[131.044607,-0.038263],[131.056407,-0.04103],[131.057791,-0.049086],[131.043793,-0.06524],[131.059825,-0.06642],[131.086192,-0.071547],[131.113536,-0.073663],[131.12672,-0.07643],[131.153656,-0.085707],[131.161876,-0.09238],[131.170421,-0.101658],[131.180024,-0.11004],[131.19158,-0.113702],[131.196625,-0.119236],[131.201915,-0.13006],[131.211599,-0.137872],[131.229503,-0.13421],[131.233897,-0.138116],[131.238536,-0.139825],[131.253673,-0.140313],[131.263682,-0.142673],[131.269298,-0.147556],[131.273936,-0.152439],[131.297374,-0.159275],[131.305919,-0.171075],[131.318207,-0.203058],[131.304861,-0.217543],[131.298839,-0.226658],[131.297618,-0.237237]]],[[[129,-3],[129,-2.821239],[129.015961,-2.814223],[129.052908,-2.804457],[129.068858,-2.821222],[129.070567,-2.854913],[129.064464,-2.896173],[129.079438,-2.905369],[129.105235,-2.947931],[129.121837,-2.957696],[129.133149,-2.956476],[129.152599,-2.951349],[129.162852,-2.950291],[129.169119,-2.951349],[129.17213,-2.953871],[129.174164,-2.956476],[129.177094,-2.957696],[129.185395,-2.955173],[129.184337,-2.949151],[129.180512,-2.942153],[129.180512,-2.936619],[129.179942,-2.934259],[129.178233,-2.930434],[129.179454,-2.926446],[129.187348,-2.922947],[129.191905,-2.923028],[129.195323,-2.928399],[129.20045,-2.929783],[129.211599,-2.940851],[129.218516,-2.941176],[129.221446,-2.926365],[129.227794,-2.915216],[129.243175,-2.906834],[129.276134,-2.896173],[129.32838,-2.866795],[129.358409,-2.856215],[129.364106,-2.842055],[129.366466,-2.823989],[129.372895,-2.806817],[129.400238,-2.791599],[129.443533,-2.784926],[129.523204,-2.78631],[129.534841,-2.780043],[129.541026,-2.780043],[129.543712,-2.789727],[129.545258,-2.793552],[129.549571,-2.796645],[129.554942,-2.799005],[129.611827,-2.806817],[129.753754,-2.866469],[129.766124,-2.86891],[129.778087,-2.875421],[129.798025,-2.906427],[129.810557,-2.916681],[129.82545,-2.917657],[129.838145,-2.912693],[129.849864,-2.906183],[129.862071,-2.903009],[129.868337,-2.906996],[129.869884,-2.916274],[129.873302,-2.927504],[129.88559,-2.936619],[129.89503,-2.925388],[129.911632,-2.933201],[129.927582,-2.946954],[129.943858,-2.964532],[129.964854,-2.973565],[130.046641,-2.99212],[130.212657,-2.990411],[130.301524,-2.977227],[130.344981,-2.977634],[130.389334,-2.993829],[130.395896,-3],[129,-3]]],[[[130.593761,-2.245294],[130.605886,-2.248386],[130.612153,-2.251886],[130.598806,-2.255792],[130.591238,-2.255548],[130.571137,-2.255792],[130.562511,-2.255222],[130.56129,-2.250909],[130.577078,-2.247166],[130.593761,-2.245294]]],[[[130.52296,-2.220798],[130.531261,-2.22031],[130.535737,-2.221205],[130.535411,-2.223484],[130.531261,-2.225844],[130.526052,-2.228204],[130.508962,-2.234633],[130.505138,-2.233331],[130.49464,-2.23211],[130.497813,-2.226495],[130.507091,-2.224623],[130.510509,-2.222263],[130.52296,-2.220798]]],[[[130.466889,-2.221205],[130.472341,-2.221531],[130.474457,-2.226251],[130.47283,-2.228367],[130.467784,-2.227716],[130.461436,-2.227716],[130.456228,-2.226658],[130.453543,-2.222019],[130.451915,-2.222752],[130.449229,-2.22381],[130.445974,-2.222345],[130.444184,-2.221205],[130.45102,-2.216567],[130.459565,-2.219008],[130.466889,-2.221205]]],[[[130.442068,-2.213962],[130.443451,-2.21852],[130.43922,-2.220473],[130.439708,-2.221531],[130.427908,-2.220147],[130.416026,-2.217787],[130.40325,-2.217462],[130.400564,-2.216892],[130.399832,-2.214776],[130.401703,-2.211684],[130.40683,-2.210219],[130.412283,-2.210219],[130.420421,-2.208998],[130.442068,-2.213962]]],[[[130.284028,-2.188897],[130.290863,-2.190037],[130.294932,-2.194675],[130.291433,-2.197524],[130.286225,-2.199884],[130.28004,-2.196629],[130.277029,-2.1985],[130.272065,-2.1985],[130.263357,-2.197686],[130.262787,-2.198582],[130.264008,-2.202325],[130.266205,-2.206557],[130.269379,-2.208998],[130.265554,-2.211521],[130.261241,-2.210545],[130.255626,-2.211521],[130.249848,-2.212742],[130.241791,-2.209975],[130.234711,-2.208591],[130.227306,-2.204034],[130.219981,-2.198175],[130.216156,-2.197849],[130.205577,-2.196954],[130.207774,-2.193373],[130.215017,-2.192641],[130.226003,-2.195489],[130.230479,-2.197849],[130.237641,-2.193943],[130.243988,-2.191502],[130.242035,-2.187188],[130.234955,-2.191746],[130.218354,-2.187839],[130.214285,-2.185968],[130.213796,-2.184177],[130.211274,-2.186619],[130.208751,-2.181004],[130.216156,-2.181004],[130.228526,-2.181004],[130.253429,-2.185968],[130.265473,-2.185154],[130.276622,-2.188735],[130.284028,-2.188897]]],[[[130.912283,-2.161716],[130.907725,-2.159682],[130.899099,-2.156101],[130.895193,-2.151137],[130.894216,-2.151137],[130.890636,-2.151462],[130.887543,-2.148614],[130.885671,-2.147068],[130.889171,-2.14544],[130.894379,-2.145847],[130.901703,-2.147393],[130.90976,-2.153578],[130.916921,-2.160252],[130.924653,-2.164809],[130.923676,-2.165379],[130.912283,-2.161716]]],[[[130.42921,-2.123712],[130.433442,-2.122735],[130.438975,-2.125828],[130.439708,-2.129978],[130.434581,-2.129327],[130.42921,-2.123712]]],[[[130.485281,-2.136489],[130.488455,-2.138198],[130.489513,-2.141127],[130.486339,-2.14129],[130.480968,-2.140883],[130.476817,-2.138686],[130.462657,-2.136651],[130.453543,-2.134942],[130.450694,-2.13242],[130.447765,-2.131199],[130.443696,-2.129002],[130.440603,-2.125095],[130.442231,-2.121026],[130.451427,-2.125095],[130.458995,-2.129083],[130.462901,-2.128106],[130.46575,-2.130873],[130.470551,-2.131768],[130.475434,-2.130711],[130.481781,-2.131931],[130.486746,-2.13364],[130.485281,-2.136489]]],[[[130.405772,-2.111668],[130.400401,-2.112563],[130.398123,-2.111586],[130.402843,-2.106052],[130.406749,-2.105564],[130.405772,-2.111668]]],[[[130.398367,-2.092543],[130.403005,-2.088311],[130.40797,-2.09059],[130.408214,-2.095961],[130.400401,-2.103123],[130.398367,-2.092543]]],[[[130.465994,-2.065281],[130.457693,-2.070977],[130.43572,-2.072361],[130.41684,-2.077651],[130.401703,-2.08766],[130.393077,-2.08294],[130.396658,-2.079441],[130.400157,-2.078302],[130.40683,-2.077407],[130.403982,-2.070896],[130.409353,-2.069106],[130.41391,-2.06992],[130.417003,-2.067641],[130.425792,-2.066257],[130.434093,-2.062595],[130.438894,-2.061782],[130.440929,-2.065851],[130.444265,-2.063246],[130.446788,-2.062595],[130.448009,-2.065851],[130.450369,-2.0617],[130.453787,-2.05991],[130.455577,-2.060073],[130.462087,-2.0617],[130.465994,-2.065281]]],[[[130.622162,-2.002944],[130.623464,-2.00449],[130.627208,-2.007257],[130.623464,-2.010431],[130.611095,-2.006687],[130.599132,-2.005955],[130.594656,-2.006931],[130.593598,-2.00213],[130.600108,-2.000339],[130.602712,-2.001967],[130.607351,-2.002699],[130.61199,-2.00099],[130.615001,-2.002944],[130.619477,-2.00156],[130.621267,-2.002699],[130.622162,-2.002944]]],[[[130.581228,-2.006687],[130.570567,-2.006606],[130.560639,-2.004246],[130.557546,-2.004083],[130.554454,-2.003595],[130.544607,-2.002211],[130.537771,-1.999282],[130.539561,-1.993829],[130.541189,-1.993748],[130.54363,-1.994887],[130.545421,-1.995782],[130.546397,-1.994073],[130.551606,-1.991225],[130.553722,-1.992527],[130.556733,-1.995457],[130.559011,-1.995701],[130.560964,-1.997166],[130.57488,-1.999037],[130.588145,-1.999851],[130.588715,-2.004978],[130.581228,-2.006687]]],[[[129.645518,-1.801772],[129.648611,-1.815444],[129.64739,-1.827325],[129.648611,-1.839125],[129.630707,-1.825453],[129.628835,-1.814793],[129.63502,-1.805515],[129.645518,-1.801772]]],[[[129.6421,-1.791762],[129.63559,-1.803643],[129.631602,-1.797703],[129.626313,-1.794854],[129.63266,-1.77752],[129.6421,-1.791762]]],[[[130.237071,-1.46852],[130.247813,-1.464125],[130.260509,-1.465102],[130.264008,-1.467869],[130.250662,-1.478774],[130.242524,-1.478936],[130.232514,-1.484796],[130.229503,-1.489679],[130.221121,-1.494073],[130.20753,-1.49212],[130.209972,-1.48032],[130.223643,-1.471938],[130.237071,-1.46852]]],[[[129.36085,-1.169203],[129.368256,-1.175307],[129.371593,-1.180841],[129.370942,-1.195733],[129.361339,-1.193862],[129.350759,-1.194757],[129.343354,-1.191095],[129.347179,-1.187188],[129.348806,-1.183933],[129.350108,-1.177179],[129.346528,-1.171726],[129.341075,-1.172784],[129.336274,-1.177911],[129.331716,-1.177016],[129.328949,-1.179132],[129.322113,-1.182224],[129.316742,-1.181329],[129.311615,-1.178318],[129.309662,-1.179376],[129.312755,-1.18255],[129.308197,-1.183852],[129.308197,-1.188409],[129.302582,-1.190118],[129.29599,-1.17962],[129.299001,-1.178481],[129.303396,-1.171319],[129.309906,-1.165134],[129.326101,-1.161391],[129.339447,-1.162612],[129.344249,-1.164972],[129.348969,-1.168878],[129.353282,-1.168308],[129.36085,-1.169203]]],[[[131.144786,-1.007664],[131.144705,-1.011733],[131.147146,-1.017429],[131.146739,-1.023533],[131.141938,-1.028334],[131.133311,-1.030938],[131.131684,-1.03338],[131.132091,-1.045994],[131.128998,-1.050388],[131.118744,-1.051853],[131.107351,-1.057061],[131.10849,-1.062839],[131.112153,-1.069513],[131.108816,-1.072198],[131.102306,-1.072768],[131.10141,-1.07464],[131.108246,-1.079604],[131.105805,-1.083836],[131.093598,-1.08408],[131.09669,-1.086602],[131.099213,-1.089939],[131.096202,-1.090671],[131.088959,-1.089125],[131.083995,-1.086033],[131.08253,-1.084731],[131.081147,-1.088149],[131.077647,-1.089776],[131.074636,-1.087823],[131.074718,-1.083347],[131.076508,-1.077569],[131.078217,-1.052992],[131.081554,-1.045994],[131.0831,-1.038181],[131.090017,-1.023777],[131.09075,-1.013442],[131.106049,-1.003839],[131.136811,-0.996352],[131.142589,-1.00099],[131.144786,-1.007664]]],[[[130.111288,-0.037607],[130.125968,-0.037608],[130.143316,-0.044282],[130.152658,-0.062968],[130.149987,-0.089663],[130.127299,-0.095001],[130.0926,-0.082986],[130.067244,-0.078977],[130.080593,-0.062961],[130.111288,-0.037607]]],[[[129.604828,-0.075698],[129.59254,-0.066298],[129.582286,-0.045261],[129.581472,-0.023533],[129.591645,-0.017307],[129.636892,-0.052341],[129.644705,-0.069757],[129.643403,-0.081882],[129.640066,-0.080296],[129.639822,-0.074273],[129.641856,-0.06878],[129.642263,-0.065566],[129.640066,-0.062799],[129.638031,-0.060927],[129.629649,-0.062066],[129.62558,-0.058933],[129.621593,-0.049249],[129.617768,-0.048313],[129.613292,-0.048476],[129.611339,-0.050592],[129.614024,-0.054946],[129.625336,-0.06642],[129.623546,-0.069187],[129.618907,-0.071547],[129.617442,-0.075128],[129.618337,-0.078546],[129.615082,-0.079604],[129.604828,-0.075698]]],[[[129.912283,0.306627],[129.920665,0.277248],[129.900645,0.270535],[129.88502,0.27261],[129.87615,0.284573],[129.870535,0.297878],[129.864431,0.305976],[129.859304,0.307847],[129.854747,0.31155],[129.85434,0.315172],[129.856456,0.315985],[129.893484,0.315009],[129.906586,0.310858],[129.912283,0.306627]]],[[[131.057384,-1.000665],[131.059337,-1.004978],[131.068614,-1.021254],[131.071788,-1.031671],[131.07252,-1.077569],[131.037364,-1.226332],[131.014659,-1.268976],[131.009776,-1.28867],[131.006602,-1.310805],[130.997569,-1.332452],[130.982595,-1.348565],[130.961925,-1.353774],[130.948497,-1.348403],[130.932384,-1.326593],[130.920909,-1.319594],[130.908214,-1.321466],[130.894705,-1.328709],[130.879405,-1.340102],[130.863048,-1.337172],[130.853282,-1.330662],[130.828949,-1.291436],[130.820486,-1.281671],[130.797374,-1.264418],[130.769705,-1.248224],[130.758067,-1.238214],[130.749685,-1.223403],[130.74879,-1.216974],[130.750255,-1.202732],[130.749685,-1.196059],[130.746267,-1.190037],[130.741873,-1.186293],[130.737804,-1.18434],[130.736013,-1.183201],[130.73227,-1.167901],[130.731212,-1.15838],[130.729259,-1.150811],[130.722341,-1.141534],[130.711762,-1.132501],[130.703461,-1.127374],[130.695974,-1.120701],[130.688243,-1.107354],[130.710134,-1.092869],[130.711925,-1.06992],[130.701834,-1.045099],[130.688243,-1.024835],[130.649425,-0.988377],[130.64975,-0.97381],[130.680675,-0.956638],[130.79005,-0.929295],[130.830577,-0.907485],[130.8685,-0.893813],[130.891856,-0.889907],[130.912934,-0.89422],[130.929047,-0.911554],[130.934906,-0.925877],[130.939708,-0.932306],[130.944835,-0.932306],[130.960785,-0.922947],[130.980317,-0.917657],[131.026622,-0.913995],[131.030772,-0.913018],[131.034841,-0.914809],[131.043793,-0.922459],[131.052745,-0.932306],[131.07488,-0.966892],[131.076182,-0.974298],[131.061534,-0.989923],[131.057384,-1.000665]]],[[[130.593761,-2.245294],[130.605886,-2.248386],[130.612153,-2.251886],[130.598806,-2.255792],[130.591238,-2.255548],[130.571137,-2.255792],[130.562511,-2.255222],[130.56129,-2.250909],[130.577078,-2.247166],[130.593761,-2.245294]]],[[[130.52296,-2.220798],[130.531261,-2.22031],[130.535737,-2.221205],[130.535411,-2.223484],[130.531261,-2.225844],[130.526052,-2.228204],[130.508962,-2.234633],[130.505138,-2.233331],[130.49464,-2.23211],[130.497813,-2.226495],[130.507091,-2.224623],[130.510509,-2.222263],[130.52296,-2.220798]]],[[[130.466889,-2.221205],[130.472341,-2.221531],[130.474457,-2.226251],[130.47283,-2.228367],[130.467784,-2.227716],[130.461436,-2.227716],[130.456228,-2.226658],[130.453543,-2.222019],[130.451915,-2.222752],[130.449229,-2.22381],[130.445974,-2.222345],[130.444184,-2.221205],[130.45102,-2.216567],[130.459565,-2.219008],[130.466889,-2.221205]]],[[[130.442068,-2.213962],[130.443451,-2.21852],[130.43922,-2.220473],[130.439708,-2.221531],[130.427908,-2.220147],[130.416026,-2.217787],[130.40325,-2.217462],[130.400564,-2.216892],[130.399832,-2.214776],[130.401703,-2.211684],[130.40683,-2.210219],[130.412283,-2.210219],[130.420421,-2.208998],[130.442068,-2.213962]]],[[[130.284028,-2.188897],[130.290863,-2.190037],[130.294932,-2.194675],[130.291433,-2.197524],[130.286225,-2.199884],[130.28004,-2.196629],[130.277029,-2.1985],[130.272065,-2.1985],[130.263357,-2.197686],[130.262787,-2.198582],[130.264008,-2.202325],[130.266205,-2.206557],[130.269379,-2.208998],[130.265554,-2.211521],[130.261241,-2.210545],[130.255626,-2.211521],[130.249848,-2.212742],[130.241791,-2.209975],[130.234711,-2.208591],[130.227306,-2.204034],[130.219981,-2.198175],[130.216156,-2.197849],[130.205577,-2.196954],[130.207774,-2.193373],[130.215017,-2.192641],[130.226003,-2.195489],[130.230479,-2.197849],[130.237641,-2.193943],[130.243988,-2.191502],[130.242035,-2.187188],[130.234955,-2.191746],[130.218354,-2.187839],[130.214285,-2.185968],[130.213796,-2.184177],[130.211274,-2.186619],[130.208751,-2.181004],[130.216156,-2.181004],[130.228526,-2.181004],[130.253429,-2.185968],[130.265473,-2.185154],[130.276622,-2.188735],[130.284028,-2.188897]]],[[[130.912283,-2.161716],[130.907725,-2.159682],[130.899099,-2.156101],[130.895193,-2.151137],[130.894216,-2.151137],[130.890636,-2.151462],[130.887543,-2.148614],[130.885671,-2.147068],[130.889171,-2.14544],[130.894379,-2.145847],[130.901703,-2.147393],[130.90976,-2.153578],[130.916921,-2.160252],[130.924653,-2.164809],[130.923676,-2.165379],[130.912283,-2.161716]]],[[[130.42921,-2.123712],[130.433442,-2.122735],[130.438975,-2.125828],[130.439708,-2.129978],[130.434581,-2.129327],[130.42921,-2.123712]]],[[[130.485281,-2.136489],[130.488455,-2.138198],[130.489513,-2.141127],[130.486339,-2.14129],[130.480968,-2.140883],[130.476817,-2.138686],[130.462657,-2.136651],[130.453543,-2.134942],[130.450694,-2.13242],[130.447765,-2.131199],[130.443696,-2.129002],[130.440603,-2.125095],[130.442231,-2.121026],[130.451427,-2.125095],[130.458995,-2.129083],[130.462901,-2.128106],[130.46575,-2.130873],[130.470551,-2.131768],[130.475434,-2.130711],[130.481781,-2.131931],[130.486746,-2.13364],[130.485281,-2.136489]]],[[[130.405772,-2.111668],[130.400401,-2.112563],[130.398123,-2.111586],[130.402843,-2.106052],[130.406749,-2.105564],[130.405772,-2.111668]]],[[[130.398367,-2.092543],[130.403005,-2.088311],[130.40797,-2.09059],[130.408214,-2.095961],[130.400401,-2.103123],[130.398367,-2.092543]]],[[[130.465994,-2.065281],[130.457693,-2.070977],[130.43572,-2.072361],[130.41684,-2.077651],[130.401703,-2.08766],[130.393077,-2.08294],[130.396658,-2.079441],[130.400157,-2.078302],[130.40683,-2.077407],[130.403982,-2.070896],[130.409353,-2.069106],[130.41391,-2.06992],[130.417003,-2.067641],[130.425792,-2.066257],[130.434093,-2.062595],[130.438894,-2.061782],[130.440929,-2.065851],[130.444265,-2.063246],[130.446788,-2.062595],[130.448009,-2.065851],[130.450369,-2.0617],[130.453787,-2.05991],[130.455577,-2.060073],[130.462087,-2.0617],[130.465994,-2.065281]]],[[[130.622162,-2.002944],[130.623464,-2.00449],[130.627208,-2.007257],[130.623464,-2.010431],[130.611095,-2.006687],[130.599132,-2.005955],[130.594656,-2.006931],[130.593598,-2.00213],[130.600108,-2.000339],[130.602712,-2.001967],[130.607351,-2.002699],[130.61199,-2.00099],[130.615001,-2.002944],[130.619477,-2.00156],[130.621267,-2.002699],[130.622162,-2.002944]]],[[[130.581228,-2.006687],[130.570567,-2.006606],[130.560639,-2.004246],[130.557546,-2.004083],[130.554454,-2.003595],[130.544607,-2.002211],[130.537771,-1.999282],[130.539561,-1.993829],[130.541189,-1.993748],[130.54363,-1.994887],[130.545421,-1.995782],[130.546397,-1.994073],[130.551606,-1.991225],[130.553722,-1.992527],[130.556733,-1.995457],[130.559011,-1.995701],[130.560964,-1.997166],[130.57488,-1.999037],[130.588145,-1.999851],[130.588715,-2.004978],[130.581228,-2.006687]]],[[[129.645518,-1.801772],[129.648611,-1.815444],[129.64739,-1.827325],[129.648611,-1.839125],[129.630707,-1.825453],[129.628835,-1.814793],[129.63502,-1.805515],[129.645518,-1.801772]]],[[[129.6421,-1.791762],[129.63559,-1.803643],[129.631602,-1.797703],[129.626313,-1.794854],[129.63266,-1.77752],[129.6421,-1.791762]]],[[[130.237071,-1.46852],[130.247813,-1.464125],[130.260509,-1.465102],[130.264008,-1.467869],[130.250662,-1.478774],[130.242524,-1.478936],[130.232514,-1.484796],[130.229503,-1.489679],[130.221121,-1.494073],[130.20753,-1.49212],[130.209972,-1.48032],[130.223643,-1.471938],[130.237071,-1.46852]]],[[[129.36085,-1.169203],[129.368256,-1.175307],[129.371593,-1.180841],[129.370942,-1.195733],[129.361339,-1.193862],[129.350759,-1.194757],[129.343354,-1.191095],[129.347179,-1.187188],[129.348806,-1.183933],[129.350108,-1.177179],[129.346528,-1.171726],[129.341075,-1.172784],[129.336274,-1.177911],[129.331716,-1.177016],[129.328949,-1.179132],[129.322113,-1.182224],[129.316742,-1.181329],[129.311615,-1.178318],[129.309662,-1.179376],[129.312755,-1.18255],[129.308197,-1.183852],[129.308197,-1.188409],[129.302582,-1.190118],[129.29599,-1.17962],[129.299001,-1.178481],[129.303396,-1.171319],[129.309906,-1.165134],[129.326101,-1.161391],[129.339447,-1.162612],[129.344249,-1.164972],[129.348969,-1.168878],[129.353282,-1.168308],[129.36085,-1.169203]]],[[[131.144786,-1.007664],[131.144705,-1.011733],[131.147146,-1.017429],[131.146739,-1.023533],[131.141938,-1.028334],[131.133311,-1.030938],[131.131684,-1.03338],[131.132091,-1.045994],[131.128998,-1.050388],[131.118744,-1.051853],[131.107351,-1.057061],[131.10849,-1.062839],[131.112153,-1.069513],[131.108816,-1.072198],[131.102306,-1.072768],[131.10141,-1.07464],[131.108246,-1.079604],[131.105805,-1.083836],[131.093598,-1.08408],[131.09669,-1.086602],[131.099213,-1.089939],[131.096202,-1.090671],[131.088959,-1.089125],[131.083995,-1.086033],[131.08253,-1.084731],[131.081147,-1.088149],[131.077647,-1.089776],[131.074636,-1.087823],[131.074718,-1.083347],[131.076508,-1.077569],[131.078217,-1.052992],[131.081554,-1.045994],[131.0831,-1.038181],[131.090017,-1.023777],[131.09075,-1.013442],[131.106049,-1.003839],[131.136811,-0.996352],[131.142589,-1.00099],[131.144786,-1.007664]]],[[[130.111288,-0.037607],[130.125968,-0.037608],[130.143316,-0.044282],[130.152658,-0.062968],[130.149987,-0.089663],[130.127299,-0.095001],[130.0926,-0.082986],[130.067244,-0.078977],[130.080593,-0.062961],[130.111288,-0.037607]]],[[[129.604828,-0.075698],[129.59254,-0.066298],[129.582286,-0.045261],[129.581472,-0.023533],[129.591645,-0.017307],[129.636892,-0.052341],[129.644705,-0.069757],[129.643403,-0.081882],[129.640066,-0.080296],[129.639822,-0.074273],[129.641856,-0.06878],[129.642263,-0.065566],[129.640066,-0.062799],[129.638031,-0.060927],[129.629649,-0.062066],[129.62558,-0.058933],[129.621593,-0.049249],[129.617768,-0.048313],[129.613292,-0.048476],[129.611339,-0.050592],[129.614024,-0.054946],[129.625336,-0.06642],[129.623546,-0.069187],[129.618907,-0.071547],[129.617442,-0.075128],[129.618337,-0.078546],[129.615082,-0.079604],[129.604828,-0.075698]]],[[[129.912283,0.306627],[129.920665,0.277248],[129.900645,0.270535],[129.88502,0.27261],[129.87615,0.284573],[129.870535,0.297878],[129.864431,0.305976],[129.859304,0.307847],[129.854747,0.31155],[129.85434,0.315172],[129.856456,0.315985],[129.893484,0.315009],[129.906586,0.310858],[129.912283,0.306627]]]]}}],"bbox":[129,-3,132.5,0.5]}